KUIPER-00167            
1 65780U 25217U   26018.40453719 -.00004834  00000+0 -60566-3 0  9999
2 65780  51.8966 267.9449 0000483 139.5658 220.5340 14.79927285 17396
KUIPER-00168            
1 65781U 25217V   26018.66668981 -.00013409  00000+0 -12285-2 0  9999
2 65781  51.8939 249.8878 0001029 341.9998 285.1130 14.93852113  5029
KUIPER-00169            
1 65782U 25217W   26018.66668981 -.00006231  00000+0 -73322-3 0  9995
2 65782  51.8993 254.3666 0000247  76.0847 136.2629 14.82958910  5823
KUIPER-00170            
1 65783U 25217X   26018.07506057  .00011864  00000+0  15817-2 0  9996
2 65783  51.9017 261.9140 0000402  25.7785 334.3197 14.79956736 17451
KUIPER-00171            
1 65784U 25217Y   26018.66668981  .01224497  66827-3  41261-2 0  9991
2 65784  51.8489 227.3631 0008678 160.1267 158.7343 15.89468665  4444
KUIPER-00172            
1 65785U 25217Z   26018.63486044 -.00144277  00000+0 -66496-2 0  9999
2 65785  51.8743 249.3398 0006267 149.8367 210.2974 15.20371160 17670
KUIPER-00173            
1 65786U 25217AA  26018.58335648  .00012058  00000+0  14991-2 0  9999
2 65786  51.9001 254.7417 0000683 286.7382  18.3530 14.82877185  5807
KUIPER-00174            
1 65787U 25217AB  26018.58335648  .00035314  00000+0  32477-2 0  9999
2 65787  51.8925 250.3878 0001986 315.3492  20.4040 14.94445788  5907
